{
    "links": {
        "self": "http://www.neowsapp.com/rest/v1/neo/3297373?api_key=iIulBulltgU6a56xZRHN4H3l9WmuAYTsLGpBGhQ2"
    },
    "id": "3297373",
    "neo_reference_id": "3297373",
    "name": "(2005 UF7)",
    "designation": "2005 UF7",
    "nasa_jpl_url": "http://ssd.jpl.nasa.gov/sbdb.cgi?sstr=3297373",
    "absolute_magnitude_h": 26.5,
    "estimated_diameter": {
        "kilometers": {
            "estimated_diameter_min": 0.0133215567,
            "estimated_diameter_max": 0.0297879063
        },
        "meters": {
            "estimated_diameter_min": 13.3215566698,
            "estimated_diameter_max": 29.7879062798
        },
        "miles": {
            "estimated_diameter_min": 0.008277629,
            "estimated_diameter_max": 0.0185093411
        },
        "feet": {
            "estimated_diameter_min": 43.7058959846,
            "estimated_diameter_max": 97.7293544391
        }
    },
    "is_potentially_hazardous_asteroid": false,
    "close_approach_data": [
        {
            "close_approach_date": "2005-11-03",
            "close_approach_date_full": "2005-Nov-03 03:49",
            "epoch_date_close_approach": 1130989740000,
            "relative_velocity": {
                "kilometers_per_second": "7.0782673877",
                "kilometers_per_hour": "25481.7625958735",
                "miles_per_hour": "15833.3763196415"
            },
            "miss_distance": {
                "astronomical": "0.0366114384",
                "lunar": "14.2418495376",
                "kilometers": "5476993.202276208",
                "miles": "3403245.7652913504"
            },
            "orbiting_body": "Earth"
        }
    ],
    "orbital_data": {
        "orbit_id": "7",
        "orbit_determination_date": "2017-04-06 09:10:02",
        "first_observation_date": "2005-10-29",
        "last_observation_date": "2005-11-05",
        "data_arc_in_days": 7,
        "observations_used": 18,
        "orbit_uncertainty": "8",
        "minimum_orbit_intersection": ".0350932",
        "jupiter_tisserand_invariant": "3.211",
        "epoch_osculation": "2453674.5",
        "eccentricity": ".5875699486702783",
        "semi_major_axis": "2.486282438606754",
        "inclination": ".9195732502619123",
        "ascending_node_longitude": "209.9505762961178",
        "orbital_period": "1431.937690703705",
        "perihelion_distance": "1.025417593774769",
        "perihelion_argument": "197.6845336577987",
        "aphelion_distance": "3.947147283438738",
        "perihelion_time": "2453683.107142049152",
        "mean_anomaly": "357.8360991837766",
        "mean_motion": ".2514075873113468",
        "equinox": "J2000",
        "orbit_class": {
            "orbit_class_type": "AMO",
            "orbit_class_description": "Near-Earth asteroid orbits similar to that of 1221 Amor",
            "orbit_class_range": "1.017 AU < q (perihelion) < 1.3 AU"
        }
    },
    "is_sentry_object": false
}